{
  "type": "FeatureCollection",
  "name": "G1_construction_scope",
  "crs": {
    "type": "name",
    "properties": {
      "name": "EPSG:2056"
    }
  },
  "features": [
    {
      "type": "Feature",
      "properties": {
        "id": "G1",
        "role": "construction_scope",
        "status": "active_not_accepted",
        "area_m2": 312375.86090085685,
        "origin_lv95_ln02": [
          2683775,
          1246700,
          400
        ],
        "geometry_basis": "project selection; whole intersected official building footprints"
      },
      "geometry": {
        "type": "Polygon",
        "coordinates": [
          [
            [
              2683543.459,
              1247021.987
            ],
            [
              2683535.079,
              1247016.553
            ],
            [
              2683529.361,
              1247024.389
            ],
            [
              2683528.919,
              1247024.988
            ],
            [
              2683522.808,
              1247032.0
            ],
            [
              2683530.325,
              1247038.569
            ],
            [
              2683542.616,
              1247049.951
            ],
            [
              2683544.253,
              1247048.063
            ],
            [
              2683550.878,
              1247040.656
            ],
            [
              2683550.945,
              1247040.582
            ],
            [
              2683552.003,
              1247041.42
            ],
            [
              2683558.19,
              1247046.446
            ],
            [
              2683561.836,
              1247042.487
            ],
            [
              2683564.241,
              1247040.17
            ],
            [
              2683569.989,
              1247045.676
            ],
            [
              2683573.661,
              1247049.351
            ],
            [
              2683577.948,
              1247044.937
            ],
            [
              2683572.7777620475,
              1247040.0
            ],
            [
              2683577.84189072,
              1247040.0
            ],
            [
              2683580.37,
              1247042.427
            ],
            [
              2683582.6324375607,
              1247040.0
            ],
            [
              2683592.0134748425,
              1247040.0
            ],
            [
              2683590.232,
              1247041.896
            ],
            [
              2683590.297,
              1247041.959
            ],
            [
              2683597.676,
              1247049.08
            ],
            [
              2683600.186,
              1247051.502
            ],
            [
              2683600.64,
              1247051.027
            ],
            [
              2683605.713,
              1247045.69
            ],
            [
              2683608.013,
              1247043.267
            ],
            [
              2683607.947,
              1247042.627
            ],
            [
              2683604.6008438915,
              1247040.0
            ],
            [
              2683608.077092172,
              1247040.0
            ],
            [
              2683610.193,
              1247041.652
            ],
            [
              2683610.212305,
              1247041.667461
            ],
            [
              2683610.231877,
              1247041.682583
            ],
            [
              2683610.25171,
              1247041.697361
            ],
            [
              2683610.271798,
              1247041.711791
            ],
            [
              2683610.292134,
              1247041.725869
            ],
            [
              2683610.312712,
              1247041.73959
            ],
            [
              2683610.333527,
              1247041.75295
            ],
            [
              2683610.354571,
              1247041.765945
            ],
            [
              2683610.375839,
              1247041.778571
            ],
            [
              2683610.397324,
              1247041.790824
            ],
            [
              2683610.419019,
              1247041.802701
            ],
            [
              2683610.440918,
              1247041.814198
            ],
            [
              2683610.463014,
              1247041.825311
            ],
            [
              2683610.4853,
              1247041.836037
            ],
            [
              2683610.50777,
              1247041.846372
            ],
            [
              2683610.530417,
              1247041.856315
            ],
            [
              2683610.553234,
              1247041.865861
            ],
            [
              2683610.576214,
              1247041.875007
            ],
            [
              2683610.59935,
              1247041.883752
            ],
            [
              2683610.622635,
              1247041.892091
            ],
            [
              2683610.646062,
              1247041.900024
            ],
            [
              2683610.669623,
              1247041.907546
            ],
            [
              2683610.693313,
              1247041.914657
            ],
            [
              2683610.717122,
              1247041.921353
            ],
            [
              2683610.741045,
              1247041.927634
            ],
            [
              2683610.765073,
              1247041.933496
            ],
            [
              2683610.7892,
              1247041.938938
            ],
            [
              2683610.813419,
              1247041.943958
            ],
            [
              2683610.837721,
              1247041.948556
            ],
            [
              2683610.8621,
              1247041.952729
            ],
            [
              2683610.886548,
              1247041.956476
            ],
            [
              2683610.911057,
              1247041.959797
            ],
            [
              2683610.935621,
              1247041.962689
            ],
            [
              2683610.960231,
              1247041.965153
            ],
            [
              2683610.98488,
              1247041.967187
            ],
            [
              2683611.009562,
              1247041.968791
            ],
            [
              2683611.034267,
              1247041.969965
            ],
            [
              2683611.058989,
              1247041.970707
            ],
            [
              2683611.083721,
              1247041.971018
            ],
            [
              2683611.108454,
              1247041.970898
            ],
            [
              2683611.133181,
              1247041.970347
            ],
            [
              2683611.157895,
              1247041.969364
            ],
            [
              2683611.182587,
              1247041.967951
            ],
            [
              2683611.207252,
              1247041.966107
            ],
            [
              2683611.23188,
              1247041.963834
            ],
            [
              2683611.256466,
              1247041.961131
            ],
            [
              2683611.281,
              1247041.958
            ],
            [
              2683611.305381,
              1247041.954198
            ],
            [
              2683611.329692,
              1247041.949976
            ],
            [
              2683611.353927,
              1247041.945334
            ],
            [
              2683611.378078,
              1247041.940274
            ],
            [
              2683611.402138,
              1247041.934797
            ],
            [
              2683611.426099,
              1247041.928906
            ],
            [
              2683611.449956,
              1247041.922601
            ],
            [
              2683611.473699,
              1247041.915885
            ],
            [
              2683611.497324,
              1247041.90876
            ],
            [
              2683611.520821,
              1247041.901227
            ],
            [
              2683611.544185,
              1247041.89329
            ],
            [
              2683611.567408,
              1247041.88495
            ],
            [
              2683611.590484,
              1247041.87621
            ],
            [
              2683611.613405,
              1247041.867072
            ],
            [
              2683611.636165,
              1247041.85754
            ],
            [
              2683611.658756,
              1247041.847616
            ],
            [
              2683611.681173,
              1247041.837303
            ],
            [
              2683611.703408,
              1247041.826604
            ],
            [
              2683611.725455,
              1247041.815523
            ],
            [
              2683611.747308,
              1247041.804062
            ],
            [
              2683611.768959,
              1247041.792225
            ],
            [
              2683611.790402,
              1247041.780016
            ],
            [
              2683611.811631,
              1247041.767438
            ],
            [
              2683611.832639,
              1247041.754496
            ],
            [
              2683611.853421,
              1247041.741192
            ],
            [
              2683611.87397,
              1247041.727531
            ],
            [
              2683611.894279,
              1247041.713517
            ],
            [
              2683611.914344,
              1247041.699154
            ],
            [
              2683611.934157,
              1247041.684446
            ],
            [
              2683611.953713,
              1247041.669399
            ],
            [
              2683611.973006,
              1247041.654016
            ],
            [
              2683611.992031,
              1247041.638301
            ],
            [
              2683612.010781,
              1247041.62226
            ],
            [
              2683612.029251,
              1247041.605898
            ],
            [
              2683612.047435,
              1247041.589219
            ],
            [
              2683612.065329,
              1247041.572228
            ],
            [
              2683612.082926,
              1247041.55493
            ],
            [
              2683612.100222,
              1247041.537331
            ],
            [
              2683612.117211,
              1247041.519436
            ],
            [
              2683612.133888,
              1247041.501249
            ],
            [
              2683612.150249,
              1247041.482778
            ],
            [
              2683612.166288,
              1247041.464026
            ],
            [
              2683612.182,
              1247041.445
            ],
            [
              2683613.056,
              1247040.479
            ],
            [
              2683613.91,
              1247041.199
            ],
            [
              2683612.158,
              1247043.187
            ],
            [
              2683608.069,
              1247047.792
            ],
            [
              2683607.739,
              1247048.181
            ],
            [
              2683610.249,
              1247050.462
            ],
            [
              2683611.975,
              1247052.031
            ],
            [
              2683612.186,
              1247052.222
            ],
            [
              2683611.024,
              1247053.501
            ],
            [
              2683621.743,
              1247063.033
            ],
            [
              2683621.959,
              1247063.225
            ],
            [
              2683622.063,
              1247063.114
            ],
            [
              2683622.41,
              1247062.762
            ],
            [
              2683622.746,
              1247063.063
            ],
            [
              2683624.922,
              1247065.014
            ],
            [
              2683637.581,
              1247053.45
            ],
            [
              2683634.258,
              1247050.507
            ],
            [
              2683628.014,
              1247044.392
            ],
            [
              2683631.175672616,
              1247040.0
            ],
            [
              2683684.2016348117,
              1247040.0
            ],
            [
              2683684.716,
              1247040.343
            ],
            [
              2683695.246,
              1247047.365
            ],
            [
              2683695.428,
              1247047.487
            ],
            [
              2683695.249,
              1247047.754
            ],
            [
              2683695.885,
              1247048.183
            ],
            [
              2683695.997,
              1247048.017
            ],
            [
              2683703.559,
              1247053.183
            ],
            [
              2683703.748,
              1247052.899
            ],
            [
              2683708.907,
              1247045.142
            ],
            [
              2683712.3239462143,
              1247040.0
            ],
            [
              2683741.3837292525,
              1247040.0
            ],
            [
              2683738.968,
              1247041.246
            ],
            [
              2683738.915,
              1247041.17
            ],
            [
              2683735.494,
              1247042.898
            ],
            [
              2683739.107,
              1247050.033
            ],
            [
              2683744.043,
              1247047.546
            ],
            [
              2683744.201,
              1247047.856
            ],
            [
              2683744.8,
              1247047.563
            ],
            [
              2683744.636,
              1247047.239
            ],
            [
              2683746.314,
              1247046.391
            ],
            [
              2683743.0354125085,
              1247040.0
            ],
            [
              2683743.702081004,
              1247040.0
            ],
            [
              2683743.717384,
              1247040.012813
            ],
            [
              2683743.758309,
              1247040.045971
            ],
            [
              2683743.799764,
              1247040.078463
            ],
            [
              2683743.841737,
              1247040.110283
            ],
            [
              2683743.884218,
              1247040.141421
            ],
            [
              2683743.927197,
              1247040.17187
            ],
            [
              2683743.97066,
              1247040.201621
            ],
            [
              2683744.014599,
              1247040.230667
            ],
            [
              2683744.059,
              1247040.259
            ],
            [
              2683744.826,
              1247040.548
            ],
            [
              2683744.846156,
              1247040.554651
            ],
            [
              2683744.866421,
              1247040.560961
            ],
            [
              2683744.88679,
              1247040.566928
            ],
            [
              2683744.907257,
              1247040.572552
            ],
            [
              2683744.927815,
              1247040.577829
            ],
            [
              2683744.948459,
              1247040.582759
            ],
            [
              2683744.969184,
              1247040.587341
            ],
            [
              2683744.989983,
              1247040.591572
            ],
            [
              2683745.01085,
              1247040.595452
            ],
            [
              2683745.03178,
              1247040.59898
            ],
            [
              2683745.052766,
              1247040.602155
            ],
            [
              2683745.073803,
              1247040.604975
            ],
            [
              2683745.094884,
              1247040.607441
            ],
            [
              2683745.116004,
              1247040.60955
            ],
            [
              2683745.137156,
              1247040.611304
            ],
            [
              2683745.158335,
              1247040.6127
            ],
            [
              2683745.179535,
              1247040.613739
            ],
            [
              2683745.200749,
              1247040.614421
            ],
            [
              2683745.221971,
              1247040.614745
            ],
            [
              2683745.243196,
              1247040.614711
            ],
            [
              2683745.264418,
              1247040.61432
            ],
            [
              2683745.285629,
              1247040.613571
            ],
            [
              2683745.306826,
              1247040.612464
            ],
            [
              2683745.328,
              1247040.611
            ],
            [
              2683745.349165,
              1247040.609042
            ],
            [
              2683745.370294,
              1247040.606722
            ],
            [
              2683745.39138,
              1247040.60404
            ],
            [
              2683745.412417,
              1247040.600997
            ],
            [
              2683745.433399,
              1247040.597594
            ],
            [
              2683745.454319,
              1247040.593832
            ],
            [
              2683745.475172,
              1247040.589712
            ],
            [
              2683745.495951,
              1247040.585235
            ],
            [
              2683745.51665,
              1247040.580402
            ],
            [
              2683745.537263,
              1247040.575216
            ],
            [
              2683745.557784,
              1247040.569677
            ],
            [
              2683745.578208,
              1247040.563787
            ],
            [
              2683745.598528,
              1247040.557548
            ],
            [
              2683745.618737,
              1247040.550962
            ],
            [
              2683745.638831,
              1247040.54403
            ],
            [
              2683745.658803,
              1247040.536755
            ],
            [
              2683745.678647,
              1247040.529139
            ],
            [
              2683745.698358,
              1247040.521184
            ],
            [
              2683745.71793,
              1247040.512892
            ],
            [
              2683745.737357,
              1247040.504266
            ],
            [
              2683745.756633,
              1247040.495308
            ],
            [
              2683745.775753,
              1247040.486021
            ],
            [
              2683745.79471,
              1247040.476408
            ],
            [
              2683745.813501,
              1247040.466471
            ],
            [
              2683745.832118,
              1247040.456214
            ],
            [
              2683745.850556,
              1247040.445639
            ],
            [
              2683745.868811,
              1247040.43475
            ],
            [
              2683745.886876,
              1247040.423549
            ],
            [
              2683745.904747,
              1247040.412041
            ],
            [
              2683745.922418,
              1247040.400227
            ],
            [
              2683745.939884,
              1247040.388113
            ],
            [
              2683745.957139,
              1247040.375702
            ],
            [
              2683745.97418,
              1247040.362996
            ],
            [
              2683745.991,
              1247040.35
            ],
            [
              2683746.4816069365,
              1247040.0
            ],
            [
              2683747.1764759356,
              1247040.0
            ],
            [
              2683752.581,
              1247048.736
            ],
            [
              2683761.575,
              1247043.233
            ],
            [
              2683761.701,
              1247043.156
            ],
            [
              2683761.756,
              1247043.122
            ],
            [
              2683760.916,
              1247041.774
            ],
            [
              2683760.645,
              1247041.944
            ],
            [
              2683759.4335825243,
              1247040.0
            ],
            [
              2683780.0,
              1247040.0
            ],
            [
              2683822.0155589757,
              1247006.3875528194
            ],
            [
              2683824.693,
              1247009.391
            ],
            [
              2683824.731,
              1247009.358
            ],
            [
              2683829.848,
              1247015.107
            ],
            [
              2683806.856,
              1247035.448
            ],
            [
              2683804.853,
              1247037.22
            ],
            [
              2683800.374,
              1247041.182
            ],
            [
              2683806.26,
              1247047.788
            ],
            [
              2683806.305,
              1247047.748
            ],
            [
              2683812.25,
              1247054.422
            ],
            [
              2683812.206,
              1247054.461
            ],
            [
              2683818.098,
              1247061.075
            ],
            [
              2683829.925,
              1247050.544
            ],
            [
              2683829.38,
              1247049.932
            ],
            [
              2683846.932,
              1247034.331
            ],
            [
              2683847.457,
              1247034.921
            ],
            [
              2683858.54,
              1247025.051
            ],
            [
              2683852.888,
              1247018.729
            ],
            [
              2683852.999,
              1247018.561
            ],
            [
              2683852.557,
              1247018.328
            ],
            [
              2683852.591018,
              1247018.257712
            ],
            [
              2683852.623833,
              1247018.186855
            ],
            [
              2683852.655437,
              1247018.115449
            ],
            [
              2683852.685819,
              1247018.043515
            ],
            [
              2683852.714971,
              1247017.971073
            ],
            [
              2683852.742885,
              1247017.898146
            ],
            [
              2683852.769552,
              1247017.824754
            ],
            [
              2683852.794966,
              1247017.750917
            ],
            [
              2683852.819117,
              1247017.676659
            ],
            [
              2683852.842,
              1247017.602
            ],
            [
              2683853.38,
              1247017.718
            ],
            [
              2683853.493,
              1247017.193
            ],
            [
              2683852.955,
              1247017.077
            ],
            [
              2683852.965674,
              1247016.997514
            ],
            [
              2683852.974998,
              1247016.917858
            ],
            [
              2683852.982969,
              1247016.838056
            ],
            [
              2683852.989586,
              1247016.758129
            ],
            [
              2683852.994846,
              1247016.678102
            ],
            [
              2683852.998748,
              1247016.597998
            ],
            [
              2683853.00129,
              1247016.517838
            ],
            [
              2683853.002473,
              1247016.437648
            ],
            [
              2683853.002295,
              1247016.357448
            ],
            [
              2683853.000757,
              1247016.277263
            ],
            [
              2683852.99786,
              1247016.197116
            ],
            [
              2683852.993603,
              1247016.117029
            ],
            [
              2683852.987988,
              1247016.037027
            ],
            [
              2683852.981017,
              1247015.95713
            ],
            [
              2683852.972692,
              1247015.877364
            ],
            [
              2683852.963016,
              1247015.79775
            ],
            [
              2683852.95199,
              1247015.718312
            ],
            [
              2683852.939618,
              1247015.639073
            ],
            [
              2683852.925905,
              1247015.560054
            ],
            [
              2683852.910852,
              1247015.48128
            ],
            [
              2683852.894466,
              1247015.402772
            ],
            [
              2683852.876751,
              1247015.324553
            ],
            [
              2683852.857711,
              1247015.246646
            ],
            [
              2683852.837353,
              1247015.169074
            ],
            [
              2683852.815682,
              1247015.091858
            ],
            [
              2683852.792705,
              1247015.01502
            ],
            [
              2683852.768427,
              1247014.938583
            ],
            [
              2683852.742856,
              1247014.862569
            ],
            [
              2683852.716,
              1247014.787
            ],
            [
              2683853.208,
              1247014.541
            ],
            [
              2683852.95,
              1247014.025
            ],
            [
              2683852.458,
              1247014.27
            ],
            [
              2683852.421141,
              1247014.197473
            ],
            [
              2683852.383039,
              1247014.125591
            ],
            [
              2683852.343706,
              1247014.054375
            ],
            [
              2683852.303153,
              1247013.983847
            ],
            [
              2683852.261392,
              1247013.914027
            ],
            [
              2683852.218436,
              1247013.844936
            ],
            [
              2683852.174298,
              1247013.776594
            ],
            [
              2683852.12899,
              1247013.709023
            ],
            [
              2683852.082525,
              1247013.642241
            ],
            [
              2683852.034918,
              1247013.576268
            ],
            [
              2683851.986184,
              1247013.511125
            ],
            [
              2683851.936335,
              1247013.446829
            ],
            [
              2683851.885387,
              1247013.383402
            ],
            [
              2683851.833355,
              1247013.32086
            ],
            [
              2683851.780254,
              1247013.259223
            ],
            [
              2683851.726101,
              1247013.198509
            ],
            [
              2683851.670911,
              1247013.138736
            ],
            [
              2683851.6147,
              1247013.079921
            ],
            [
              2683851.557486,
              1247013.022083
            ],
            [
              2683851.499285,
              1247012.965238
            ],
            [
              2683851.440114,
              1247012.909402
            ],
            [
              2683851.379991,
              1247012.854594
            ],
            [
              2683851.318933,
              1247012.800828
            ],
            [
              2683851.25696,
              1247012.74812
            ],
            [
              2683851.194088,
              1247012.696488
            ],
            [
              2683851.130337,
              1247012.645944
            ],
            [
              2683851.065726,
              1247012.596505
            ],
            [
              2683851.000274,
              1247012.548186
            ],
            [
              2683850.934,
              1247012.501
            ],
            [
              2683851.205,
              1247012.022
            ],
            [
              2683850.712,
              1247011.744
            ],
            [
              2683850.442,
              1247012.223
            ],
            [
              2683850.369356,
              1247012.186847
            ],
            [
              2683850.296103,
              1247012.151946
            ],
            [
              2683850.222263,
              1247012.118306
            ],
            [
              2683850.147856,
              1247012.085938
            ],
            [
              2683850.072905,
              1247012.05485
            ],
            [
              2683849.997431,
              1247012.025053
            ],
            [
              2683849.921458,
              1247011.996554
            ],
            [
              2683849.845007,
              1247011.969363
            ],
            [
              2683849.768101,
              1247011.943487
            ],
            [
              2683849.690763,
              1247011.918934
            ],
            [
              2683849.613014,
              1247011.895711
            ],
            [
              2683849.534879,
              1247011.873825
            ],
            [
              2683849.45638,
              1247011.853282
            ],
            [
              2683849.37754,
              1247011.834089
            ],
            [
              2683849.298383,
              1247011.816251
            ],
            [
              2683849.218931,
              1247011.799773
            ],
            [
              2683849.139209,
              1247011.78466
            ],
            [
              2683849.059239,
              1247011.770916
            ],
            [
              2683848.979044,
              1247011.758547
            ],
            [
              2683848.89865,
              1247011.747555
            ],
            [
              2683848.818079,
              1247011.737943
            ],
            [
              2683848.737355,
              1247011.729714
            ],
            [
              2683848.656501,
              1247011.722871
            ],
            [
              2683848.575542,
              1247011.717416
            ],
            [
              2683848.494502,
              1247011.713351
            ],
            [
              2683848.413403,
              1247011.710676
            ],
            [
              2683848.332271,
              1247011.709392
            ],
            [
              2683848.251129,
              1247011.7095
            ],
            [
              2683848.17,
              1247011.711
            ],
            [
              2683848.12,
              1247011.163
            ],
            [
              2683847.529,
              1247011.216
            ],
            [
              2683847.578,
              1247011.764
            ],
            [
              2683847.500605,
              1247011.774407
            ],
            [
              2683847.423396,
              1247011.786112
            ],
            [
              2683847.346394,
              1247011.799112
            ],
            [
              2683847.269621,
              1247011.813402
            ],
            [
              2683847.193098,
              1247011.828979
            ],
            [
              2683847.116848,
              1247011.845839
            ],
            [
              2683847.040892,
              1247011.863976
            ],
            [
              2683846.965251,
              1247011.883385
            ],
            [
              2683846.889947,
              1247011.904062
            ],
            [
              2683846.815,
              1247011.926
            ],
            [
              2683846.66,
              1247011.451
            ],
            [
              2683846.476,
              1247011.534
            ],
            [
              2683836.394,
              1247000.19
            ],
            [
              2683836.11,
              1246999.87
            ],
            [
              2683833.6385562294,
              1246997.0891550165
            ],
            [
              2683955.8753164555,
              1246899.2997468356
            ],
            [
              2683955.885,
              1246899.31
            ],
            [
              2683952.98,
              1246902.378
            ],
            [
              2683952.863,
              1246902.281
            ],
            [
              2683952.502,
              1246902.67
            ],
            [
              2683952.973,
              1246903.126
            ],
            [
              2683953.04,
              1246903.051
            ],
            [
              2683955.48,
              1246905.432
            ],
            [
              2683954.408,
              1246906.557
            ],
            [
              2683955.96,
              1246908.072
            ],
            [
              2683957.053,
              1246906.911
            ],
            [
              2683960.989,
              1246910.731
            ],
            [
              2683960.92,
              1246910.802
            ],
            [
              2683961.089,
              1246910.998
            ],
            [
              2683961.359,
              1246911.265
            ],
            [
              2683961.757,
              1246910.833
            ],
            [
              2683961.655,
              1246910.75
            ],
            [
              2683962.778,
              1246909.615
            ],
            [
              2683963.11,
              1246909.898
            ],
            [
              2683963.715,
              1246909.207
            ],
            [
              2683963.437,
              1246908.938
            ],
            [
              2683964.516,
              1246907.804
            ],
            [
              2683964.617,
              1246907.886
            ],
            [
              2683965.031,
              1246907.421
            ],
            [
              2683964.601,
              1246906.994
            ],
            [
              2683964.496,
              1246907.115
            ],
            [
              2683960.908,
              1246903.633
            ],
            [
              2683968.191,
              1246896.157
            ],
            [
              2683971.449,
              1246899.332
            ],
            [
              2683971.136,
              1246899.66
            ],
            [
              2683971.153,
              1246900.214
            ],
            [
              2683971.698,
              1246900.761
            ],
            [
              2683972.223,
              1246900.764
            ],
            [
              2683972.579,
              1246900.398
            ],
            [
              2683975.77,
              1246903.532
            ],
            [
              2683975.415,
              1246903.927
            ],
            [
              2683975.298,
              1246903.837
            ],
            [
              2683971.906,
              1246907.402
            ],
            [
              2683972.33,
              1246907.838
            ],
            [
              2683972.397,
              1246907.762
            ],
            [
              2683975.739,
              1246911.002
            ],
            [
              2683975.69,
              1246911.079
            ],
            [
              2683976.15,
              1246911.518
            ],
            [
              2683976.607,
              1246911.045
            ],
            [
              2683976.518,
              1246910.956
            ],
            [
              2683982.755,
              1246904.487
            ],
            [
              2683983.826,
              1246903.4
            ],
            [
              2683983.911,
              1246903.487
            ],
            [
              2683984.35,
              1246903.024
            ],
            [
              2683983.937,
              1246902.616
            ],
            [
              2683983.722,
              1246902.839
            ],
            [
              2683983.109,
              1246902.244
            ],
            [
              2683983.303,
              1246902.016
            ],
            [
              2683982.839,
              1246901.59
            ],
            [
              2683981.162,
              1246903.355
            ],
            [
              2683978.811,
              1246901.06
            ],
            [
              2683980.534,
              1246899.305
            ],
            [
              2683980.125,
              1246898.914
            ],
            [
              2683979.717,
              1246899.34
            ],
            [
              2683979.786,
              1246899.417
            ],
            [
              2683979.42,
              1246899.783
            ],
            [
              2683979.041,
              1246899.432
            ],
            [
              2683979.103,
              1246899.337
            ],
            [
              2683978.662,
              1246898.898
            ],
            [
              2683978.583,
              1246898.992
            ],
            [
              2683978.098,
              1246898.562
            ],
            [
              2683978.174,
              1246898.452
            ],
            [
              2683977.719,
              1246898.015
            ],
            [
              2683977.993,
              1246897.697
            ],
            [
              2683978.0,
              1246897.211
            ],
            [
              2683977.395,
              1246896.611
            ],
            [
              2683976.909,
              1246896.637
            ],
            [
              2683976.623,
              1246896.939
            ],
            [
              2683975.973,
              1246896.315
            ],
            [
              2683974.779,
              1246895.169
            ],
            [
              2683975.117,
              1246894.797
            ],
            [
              2683975.093,
              1246894.318
            ],
            [
              2683974.508,
              1246893.792
            ],
            [
              2683973.968,
              1246893.798
            ],
            [
              2683973.656,
              1246894.097
            ],
            [
              2683973.263,
              1246893.683
            ],
            [
              2683973.186,
              1246893.771
            ],
            [
              2683972.664,
              1246893.288
            ],
            [
              2683972.742,
              1246893.2
            ],
            [
              2683972.307,
              1246892.805
            ],
            [
              2683972.26,
              1246892.874
            ],
            [
              2683971.86,
              1246892.488
            ],
            [
              2683972.161,
              1246892.167
            ],
            [
              2683972.254,
              1246892.243
            ],
            [
              2683972.724,
              1246891.774
            ],
            [
              2683972.622,
              1246891.692
            ],
            [
              2683974.616,
              1246889.696
            ],
            [
              2683974.714,
              1246889.763
            ],
            [
              2683975.121,
              1246889.296
            ],
            [
              2683974.744,
              1246888.909
            ],
            [
              2683974.649,
              1246888.999
            ],
            [
              2683971.9824009957,
              1246886.4140792033
            ],
            [
              2684038.9349747295,
              1246832.8520202162
            ],
            [
              2684039.324,
              1246833.439
            ],
            [
              2684039.272,
              1246833.481
            ],
            [
              2684042.333,
              1246838.182
            ],
            [
              2684048.31,
              1246834.427
            ],
            [
              2684048.875,
              1246835.374
            ],
            [
              2684050.342,
              1246835.685
            ],
            [
              2684053.224,
              1246833.881
            ],
            [
              2684053.696,
              1246832.318
            ],
            [
              2684053.07,
              1246831.379
            ],
            [
              2684053.263,
              1246831.264
            ],
            [
              2684049.615,
              1246825.486
            ],
            [
              2684049.484,
              1246825.552
            ],
            [
              2684049.003408887,
              1246824.7972728906
            ],
            [
              2684080.0,
              1246800.0
            ],
            [
              2684092.2348716035,
              1246763.29538519
            ],
            [
              2684098.99,
              1246759.066
            ],
            [
              2684100.723,
              1246757.981
            ],
            [
              2684096.3452715627,
              1246750.9641853126
            ],
            [
              2684099.4803415127,
              1246741.5589754614
            ],
            [
              2684100.157,
              1246741.134
            ],
            [
              2684099.8080551503,
              1246740.5758345486
            ],
            [
              2684108.003722655,
              1246715.9888320349
            ],
            [
              2684109.313,
              1246717.458
            ],
            [
              2684109.849,
              1246716.972
            ],
            [
              2684111.377,
              1246718.705
            ],
            [
              2684113.46,
              1246716.854
            ],
            [
              2684111.927,
              1246715.128
            ],
            [
              2684121.112,
              1246707.021
            ],
            [
              2684113.736716641,
              1246698.7898500764
            ],
            [
              2684130.2193816174,
              1246649.3418551483
            ],
            [
              2684151.728,
              1246635.508
            ],
            [
              2684143.069,
              1246621.966
            ],
            [
              2684138.3309341734,
              1246625.007197479
            ],
            [
              2684140.0,
              1246620.0
            ],
            [
              2684097.094939137,
              1246582.6912514234
            ],
            [
              2684098.388,
              1246581.295
            ],
            [
              2684097.121,
              1246580.112
            ],
            [
              2684090.341,
              1246573.787
            ],
            [
              2684091.338,
              1246572.712
            ],
            [
              2684089.919,
              1246571.393
            ],
            [
              2684088.05,
              1246569.656
            ],
            [
              2684085.390071006,
              1246572.5131052227
            ],
            [
              2684060.721570691,
              1246551.0622353835
            ],
            [
              2684071.295,
              1246539.674
            ],
            [
              2684073.988,
              1246541.678
            ],
            [
              2684072.581,
              1246543.679
            ],
            [
              2684088.188,
              1246555.304
            ],
            [
              2684088.541,
              1246555.567
            ],
            [
              2684088.562,
              1246555.583
            ],
            [
              2684097.63,
              1246543.357
            ],
            [
              2684094.133,
              1246540.77
            ],
            [
              2684079.591,
              1246530.013
            ],
            [
              2684079.155,
              1246530.51
            ],
            [
              2684068.053,
              1246520.195
            ],
            [
              2684048.9586779554,
              1246540.833633005
            ],
            [
              2684031.439184008,
              1246525.5992904417
            ],
            [
              2684032.782,
              1246524.171
            ],
            [
              2684032.621,
              1246524.016
            ],
            [
              2684035.061,
              1246521.461
            ],
            [
              2684025.083,
              1246512.109
            ],
            [
              2684021.000484647,
              1246516.5221605627
            ],
            [
              2684001.6841881983,
              1246499.7253810423
            ],
            [
              2684004.394,
              1246495.676
            ],
            [
              2683996.339,
              1246490.158
            ],
            [
              2683996.226,
              1246490.08
            ],
            [
              2683994.1536926758,
              1246493.1771240658
            ],
            [
              2683982.2219004757,
              1246482.8016525877
            ],
            [
              2683983.119,
              1246481.461
            ],
            [
              2683983.675,
              1246480.63
            ],
            [
              2683974.441,
              1246474.449
            ],
            [
              2683973.7738824375,
              1246475.4555499458
            ],
            [
              2683933.167023867,
              1246440.1452381453
            ],
            [
              2683934.721,
              1246437.429
            ],
            [
              2683935.051,
              1246437.618
            ],
            [
              2683935.419,
              1246439.126
            ],
            [
              2683936.54,
              1246439.896
            ],
            [
              2683935.915,
              1246440.805
            ],
            [
              2683936.102,
              1246440.933
            ],
            [
              2683942.238,
              1246432.069
            ],
            [
              2683941.403,
              1246431.368
            ],
            [
              2683941.254,
              1246431.387
            ],
            [
              2683939.386,
              1246430.129
            ],
            [
              2683939.417,
              1246429.984
            ],
            [
              2683938.491,
              1246429.298
            ],
            [
              2683938.361,
              1246429.335
            ],
            [
              2683937.423,
              1246428.724
            ],
            [
              2683937.328,
              1246428.501
            ],
            [
              2683936.369,
              1246427.866
            ],
            [
              2683936.254,
              1246427.898
            ],
            [
              2683934.476,
              1246426.64
            ],
            [
              2683934.413,
              1246426.47
            ],
            [
              2683933.596,
              1246425.89
            ],
            [
              2683930.877,
              1246426.487
            ],
            [
              2683930.257,
              1246427.446
            ],
            [
              2683930.289,
              1246427.636
            ],
            [
              2683929.115,
              1246429.486
            ],
            [
              2683929.006,
              1246429.48
            ],
            [
              2683928.302,
              1246430.65
            ],
            [
              2683928.379,
              1246430.719
            ],
            [
              2683927.452,
              1246432.298
            ],
            [
              2683927.302,
              1246432.313
            ],
            [
              2683926.2193198954,
              1246434.103756431
            ],
            [
              2683910.0,
              1246420.0
            ],
            [
              2683909.9619691954,
              1246420.0
            ],
            [
              2683916.244,
              1246409.65
            ],
            [
              2683906.091,
              1246403.775
            ],
            [
              2683901.741,
              1246410.945
            ],
            [
              2683898.207,
              1246408.808
            ],
            [
              2683896.328,
              1246411.941
            ],
            [
              2683899.848,
              1246414.066
            ],
            [
              2683897.899,
              1246417.336
            ],
            [
              2683897.028,
              1246416.805
            ],
            [
              2683895.07832194,
              1246420.0
            ],
            [
              2683881.6867427854,
              1246420.0
            ],
            [
              2683884.061,
              1246415.582
            ],
            [
              2683877.479,
              1246411.761
            ],
            [
              2683876.106,
              1246414.172
            ],
            [
              2683865.472,
              1246408.591
            ],
            [
              2683865.237,
              1246408.458
            ],
            [
              2683866.023,
              1246407.032
            ],
            [
              2683862.565,
              1246404.818
            ],
            [
              2683849.56,
              1246396.494
            ],
            [
              2683851.185,
              1246393.585
            ],
            [
              2683847.977,
              1246391.547
            ],
            [
              2683845.269,
              1246395.828
            ],
            [
              2683844.5,
              1246395.341
            ],
            [
              2683840.927,
              1246400.987
            ],
            [
              2683841.696,
              1246401.474
            ],
            [
              2683837.466,
              1246408.087
            ],
            [
              2683837.451,
              1246408.111
            ],
            [
              2683856.1643200633,
              1246420.0
            ],
            [
              2683837.465897779,
              1246420.0
            ],
            [
              2683828.52,
              1246414.314
            ],
            [
              2683827.788,
              1246413.496
            ],
            [
              2683827.497,
              1246413.622
            ],
            [
              2683825.095,
              1246414.664
            ],
            [
              2683825.191,
              1246415.749
            ],
            [
              2683822.839994327,
              1246420.0
            ],
            [
              2683795.2234117286,
              1246420.0
            ],
            [
              2683786.299,
              1246416.284
            ],
            [
              2683785.286,
              1246418.593
            ],
            [
              2683781.662,
              1246417.105
            ],
            [
              2683764.173,
              1246409.816
            ],
            [
              2683746.496,
              1246402.466
            ],
            [
              2683742.127,
              1246412.944
            ],
            [
              2683741.852,
              1246413.603
            ],
            [
              2683757.162199513,
              1246420.0
            ],
            [
              2683733.6602578317,
              1246420.0
            ],
            [
              2683735.499,
              1246415.581
            ],
            [
              2683722.9,
              1246410.442
            ],
            [
              2683718.9240826447,
              1246420.0
            ],
            [
              2683650.0,
              1246420.0
            ],
            [
              2683470.0,
              1246710.0
            ],
            [
              2683470.0,
              1246940.0
            ],
            [
              2683536.7969196523,
              1247014.2187996134
            ],
            [
              2683535.432,
              1247016.052
            ],
            [
              2683541.573,
              1247020.142
            ],
            [
              2683542.7670208733,
              1247020.8522454149
            ],
            [
              2683544.3162591076,
              1247022.5736212307
            ],
            [
              2683543.459,
              1247021.987
            ]
          ],
          [
            [
              2683956.954,
              1246899.678
            ],
            [
              2683956.535,
              1246899.274
            ],
            [
              2683956.591,
              1246899.199
            ],
            [
              2683956.306169404,
              1246898.955064477
            ],
            [
              2683962.1592645007,
              1246894.2725883995
            ],
            [
              2683956.954,
              1246899.678
            ]
          ],
          [
            [
              2683549.212,
              1247032.733
            ],
            [
              2683545.507,
              1247037.318
            ],
            [
              2683543.223,
              1247035.298
            ],
            [
              2683549.6886336226,
              1247028.5429262475
            ],
            [
              2683551.2247226643,
              1247030.249691849
            ],
            [
              2683549.186,
              1247032.699
            ],
            [
              2683549.212,
              1247032.733
            ]
          ]
        ]
      }
    }
  ]
}